[{"OBJECT_NAME":"STARLINK-32078","OBJECT_ID":"2024-136K","EPOCH":"2026-03-09T10:15:24.912288","MEAN_MOTION":15.30183824,"ECCENTRICITY":0.0001397,"INCLINATION":53.161,"RA_OF_ASC_NODE":76.9367,"ARG_OF_PERICENTER":99.4647,"MEAN_ANOMALY":260.6512,"EPHEMERIS_TYPE":0,"CLASSIFICATION_TYPE":"U","NORAD_CAT_ID":60338,"ELEMENT_SET_NO":999,"REV_AT_EPOCH":8962,"BSTAR":0.00012623976,"MEAN_MOTION_DOT":3.38e-5,"MEAN_MOTION_DDOT":0},{"OBJECT_NAME":"NOAA 17 DEB","OBJECT_ID":"2002-032AF","EPOCH":"2026-03-09T00:24:06.552000","MEAN_MOTION":15.25501717,"ECCENTRICITY":0.00030847,"INCLINATION":98.6472,"RA_OF_ASC_NODE":92.5947,"ARG_OF_PERICENTER":165.9893,"MEAN_ANOMALY":194.1428,"EPHEMERIS_TYPE":0,"CLASSIFICATION_TYPE":"U","NORAD_CAT_ID":48614,"ELEMENT_SET_NO":999,"REV_AT_EPOCH":26420,"BSTAR":0.01090047,"MEAN_MOTION_DOT":0.00286783,"MEAN_MOTION_DDOT":0}]
